NORAD_CAT_ID,OBJECT_NAME,OBJECT_TYPE,EPOCH,MEAN_MOTION,ECCENTRICITY,INCLINATION,RA_OF_ASC_NODE,ARG_OF_PERICENTER,MEAN_ANOMALY,BSTAR,MEAN_MOTION_DOT,MEAN_MOTION_DDOT,TLE_LINE0,TLE_LINE1,TLE_LINE2,SEMIMAJOR_AXIS,PERIOD,APOGEE,PERIGEE,DECAYED
51791.0,STARLINK-3602,PAYLOAD,2024-02-20 20:51:11,15.08845615,0.0001688,53.2171,106.2211,89.1143,271.0043,5.5025e-05,5.88e-06,0.0,0 STARLINK-3602,1 51791U 22017Z   24051.86887910  .00000588  00000-0  55025-4 0  9996,2 51791  53.2171 106.2211 0001688  89.1143 271.0043 15.08845615111021,6917.863,95.437,540.896,538.56,0.0
51791.0,STARLINK-3602,PAYLOAD,2024-02-21 09:34:16,15.08839685,0.0001459,53.2155,103.8413,92.6327,267.4832,0.00037547,5.693e-05,0.0,0 STARLINK-3602,1 51791U 22017Z   24052.39880322  .00005693  00000-0  37547-3 0  9995,2 51791  53.2155 103.8413 0001459  92.6327 267.4832 15.08839685111103,6917.881,95.438,540.756,538.737,0.0
51791.0,STARLINK-3602,PAYLOAD,2024-02-21 20:41:58,15.08842138,0.0001342,53.2145,101.7576,93.2667,266.8479,0.00011603,1.559e-05,0.0,0 STARLINK-3602,1 51791U 22017Z   24052.86247983  .00001559  00000-0  11603-3 0  9999,2 51791  53.2145 101.7576 0001342  93.2667 266.8479 15.08842138111178,6917.874,95.437,540.667,538.81,0.0
51791.0,STARLINK-3602,PAYLOAD,2024-02-22 09:25:03,15.08841477,0.0001527,53.2167,99.3798,91.1296,268.9872,9.2181e-05,1.179e-05,0.0,0 STARLINK-3602,1 51791U 22017Z   24053.39240196  .00001179  00000-0  92181-4 0  9996,2 51791  53.2167  99.3798 0001527  91.1296 268.9872 15.08841477111254,6917.876,95.437,540.797,538.685,0.0
51791.0,STARLINK-3602,PAYLOAD,2024-02-22 12:35:49,15.08847089,0.0001564,53.2172,98.7832,96.2753,263.8417,8.1969e-05,1.017e-05,0.0,0 STARLINK-3602,1 51791U 22017Z   24053.52487783  .00001017  00000-0  81969-4 0  9999,2 51791  53.2172  98.7832 0001564  96.2753 263.8417 15.08847089111273,6917.859,95.437,540.806,538.642,0.0
51791.0,STARLINK-3602,PAYLOAD,2024-02-22 20:32:45,15.08843121,0.0001528,53.2175,97.2953,99.1551,260.9614,6.4798e-05,7.44e-06,0.0,0 STARLINK-3602,1 51791U 22017Z   24053.85607935  .00000744  00000-0  64798-4 0  9995,2 51791  53.2175  97.2953 0001528  99.1551 260.9614 15.08843121111328,6917.871,95.437,540.793,538.679,0.0
51791.0,STARLINK-3602,PAYLOAD,2024-02-23 09:15:50,15.08843487,0.0001461,53.2168,94.9172,99.3784,260.7373,0.00016105,2.276e-05,0.0,0 STARLINK-3602,1 51791U 22017Z   24054.38599655  .00002276  00000-0  16105-3 0  9993,2 51791  53.2168  94.9172 0001461  99.3784 260.7373 15.08843487111407,6917.87,95.437,540.745,538.724,0.0
51791.0,STARLINK-3602,PAYLOAD,2024-02-24 02:45:05,15.08835397,0.000146,53.2159,91.6472,93.2337,266.8822,6.0582e-05,6.76e-06,0.0,0 STARLINK-3602,1 51791U 22017Z   24055.11464337  .00000676  00000-0  60582-4 0  9994,2 51791  53.2159  91.6472 0001460  93.2337 266.8822 15.08835397111519,6917.894,95.438,540.769,538.749,0.0
51791.0,STARLINK-3602,PAYLOAD,2024-02-24 09:06:37,15.08836743,0.0001411,53.2164,90.4572,95.7982,264.3171,6.7095e-05,7.8e-06,0.0,0 STARLINK-3602,1 51791U 22017Z   24055.37960280  .00000780  00000-0  67095-4 0  9992,2 51791  53.2164  90.4572 0001411  95.7982 264.3171 15.08836743111552,6917.89,95.438,540.731,538.779,0.0
51791.0,STARLINK-3602,PAYLOAD,2024-02-24 18:38:56,15.08839543,0.0001464,53.2164,88.6731,93.0166,267.0994,1.3584e-05,-7.2e-07,0.0,0 STARLINK-3602,1 51791U 22017Z   24055.77704301 -.00000072  00000-0  13584-4 0  9995,2 51791  53.2164  88.6731 0001464  93.0166 267.0994 15.08839543111612,6917.882,95.438,540.76,538.734,0.0
51791.0,STARLINK-3602,PAYLOAD,2024-02-25 05:46:38,15.08838566,0.000162,53.2176,86.5918,98.9426,261.175,2.8541e-05,1.66e-06,0.0,0 STARLINK-3602,1 51791U 22017Z   24056.24072462  .00000166  00000-0  28541-4 0  9996,2 51791  53.2176  86.5918 0001620  98.9426 261.1750 15.08838566111682,6917.885,95.438,540.87,538.629,0.0
51791.0,STARLINK-3602,PAYLOAD,2024-02-25 08:57:24,15.08841126,0.000154,53.2171,85.9992,97.9356,262.1811,5.2647e-05,5.5e-06,0.0,0 STARLINK-3602,1 51791U 22017Z   24056.37320242  .00000550  00000-0  52647-4 0  9993,2 51791  53.2171  85.9992 0001540  97.9356 262.1811 15.08841126111702,6917.877,95.437,540.807,538.677,0.0
51791.0,STARLINK-3602,PAYLOAD,2024-02-26 08:48:11,15.08839484,0.0001557,53.2173,81.5391,101.3922,258.7245,0.00012124,1.642e-05,0.0,0 STARLINK-3602,1 51791U 22017Z   24057.36680383  .00001642  00000-0  12124-3 0  9996,2 51791  53.2173  81.5391 0001557 101.3922 258.7245 15.08839484111858,6917.882,95.438,540.824,538.67,0.0
51791.0,STARLINK-3602,PAYLOAD,2024-02-27 05:28:13,15.08835741,0.0001607,53.218,77.6738,100.1703,259.9471,5.2578e-05,5.49e-06,0.0,0 STARLINK-3602,1 51791U 22017Z   24058.22793032  .00000549  00000-0  52578-4 0  9991,2 51791  53.2180  77.6738 0001607 100.1703 259.9471 15.08835741111987,6917.893,95.438,540.87,538.647,0.0
51791.0,STARLINK-3602,PAYLOAD,2024-02-27 10:14:22,15.08841011,0.0001537,53.2173,76.7798,91.317,268.7998,6.3924e-05,7.3e-06,0.0,0 STARLINK-3602,1 51791U 22017Z   24058.42664697  .00000730  00000-0  63924-4 0  9996,2 51791  53.2173  76.7798 0001537  91.3170 268.7998 15.08841011112010,6917.877,95.437,540.806,538.679,0.0
51791.0,STARLINK-3602,PAYLOAD,2024-02-28 10:05:09,15.088315,0.0001774,53.2183,72.3194,93.6723,266.4472,0.00026977,4.007e-05,0.0,0 STARLINK-3602,1 51791U 22017Z   24059.42024833  .00004007  00000-0  26977-3 0  9996,2 51791  53.2183  72.3194 0001774  93.6723 266.4472 15.08831500112165,6917.906,95.438,540.999,538.544,0.0
51791.0,STARLINK-3602,PAYLOAD,2024-02-28 18:02:05,15.08837945,0.0001613,53.218,70.834,97.0995,263.0181,7.2792e-05,8.71e-06,0.0,0 STARLINK-3602,1 51791U 22017Z   24059.75144943  .00000871  00000-0  72792-4 0  9999,2 51791  53.2180  70.8340 0001613  97.0995 263.0181 15.08837945112214,6917.887,95.438,540.868,538.636,0.0
51791.0,STARLINK-3602,PAYLOAD,2024-02-29 06:45:10,15.08839862,0.0001473,53.2162,68.4522,99.7865,260.3293,2.6661e-05,1.36e-06,0.0,0 STARLINK-3602,1 51791U 22017Z   24060.28137015  .00000136  00000-0  26661-4 0  9999,2 51791  53.2162  68.4522 0001473  99.7865 260.3293 15.08839862112290,6917.881,95.438,540.765,538.727,0.0
51791.0,STARLINK-3602,PAYLOAD,2024-02-29 17:52:52,15.08839874,0.000146,53.2163,66.3706,97.388,262.7278,3.5991e-06,-2.31e-06,0.0,0 STARLINK-3602,1 51791U 22017Z   24060.74505088 -.00000231  00000-0  35991-5 0  9993,2 51791  53.2163  66.3706 0001460  97.3880 262.7278 15.08839874112369,6917.881,95.438,540.756,538.736,0.0
51791.0,STARLINK-3602,PAYLOAD,2024-03-01 06:35:57,15.08841236,0.0001447,53.2163,63.9931,87.4063,272.7095,3.9412e-05,3.39e-06,0.0,0 STARLINK-3602,1 51791U 22017Z   24061.27497131  .00000339  00000-0  39412-4 0  9990,2 51791  53.2163  63.9931 0001447  87.4063 272.7095 15.08841236112442,6917.877,95.437,540.743,538.741,0.0
51791.0,STARLINK-3602,PAYLOAD,2024-03-01 17:43:39,15.08842088,0.0001416,53.2159,61.9117,96.8825,263.2329,3.5308e-06,-2.32e-06,0.0,0 STARLINK-3602,1 51791U 22017Z   24061.73865103 -.00000232  00000-0  35308-5 0  9993,2 51791  53.2159  61.9117 0001416  96.8825 263.2329 15.08842088112516,6917.874,95.437,540.719,538.759,0.0
51791.0,STARLINK-3602,PAYLOAD,2024-03-02 03:15:58,15.08838992,0.0001447,53.2156,60.1272,91.5562,268.5596,9.0279e-05,1.149e-05,0.0,0 STARLINK-3602,1 51791U 22017Z   24062.13609165  .00001149  00000-0  90279-4 0  9996,2 51791  53.2156  60.1272 0001447  91.5562 268.5596 15.08838992112579,6917.883,95.438,540.749,538.747,0.0
51791.0,STARLINK-3602,PAYLOAD,2024-03-02 06:26:44,15.08842084,0.0001451,53.2162,59.5325,92.1866,267.9293,9.4652e-05,1.219e-05,0.0,0 STARLINK-3602,1 51791U 22017Z   24062.26857013  .00001219  00000-0  94652-4 0  9994,2 51791  53.2162  59.5325 0001451  92.1866 267.9293 15.08842084112592,6917.874,95.437,540.743,538.735,0.0
51791.0,STARLINK-3602,PAYLOAD,2024-03-03 04:42:07,15.08885178,0.0001645,53.2167,55.3686,81.2235,278.8943,-0.00061416,-0.00010061,0.0,0 STARLINK-3602,1 51791U 22017Z   24063.19591609 -.00010061  00000-0 -61416-3 0  9991,2 51791  53.2167  55.3686 0001645  81.2235 278.8943 15.08885178112735,6917.742,95.435,540.745,538.469,0.0
51791.0,STARLINK-3602,PAYLOAD,2024-03-03 09:28:17,15.08844157,0.0001464,53.2171,54.4749,96.488,263.6279,5.1123e-05,5.26e-06,0.0,0 STARLINK-3602,1 51791U 22017Z   24063.39464972  .00000526  00000-0  51123-4 0  9993,2 51791  53.2171  54.4749 0001464  96.4880 263.6279 15.08844157112762,6917.868,95.437,540.745,538.72,0.0
51791.0,STARLINK-3602,PAYLOAD,2024-03-04 04:32:55,15.08838117,0.0001474,53.2173,50.9058,100.2599,259.856,9.5029e-07,-2.73e-06,0.0,0 STARLINK-3602,1 51791U 22017Z   24064.18953562 -.00000273  00000-0  95029-6 0  9994,2 51791  53.2173  50.9058 0001474 100.2599 259.8560 15.08838117112882,6917.886,95.438,540.771,538.731,0.0
51791.0,STARLINK-3602,PAYLOAD,2024-03-04 06:08:18,15.08842032,0.0001548,53.2178,50.6069,98.1413,261.9755,4.2958e-05,3.96e-06,0.0,0 STARLINK-3602,1 51791U 22017Z   24064.25577188  .00000396  00000-0  42958-4 0  9994,2 51791  53.2178  50.6069 0001548  98.1413 261.9755 15.08842032112890,6917.874,95.437,540.81,538.668,0.0
51791.0,STARLINK-3602,PAYLOAD,2024-03-04 15:40:37,15.08837634,0.0001477,53.2179,48.8274,94.3194,265.7966,3.1702e-05,2.17e-06,0.0,0 STARLINK-3602,1 51791U 22017Z   24064.65321539  .00000217  00000-0  31702-4 0  9992,2 51791  53.2179  48.8274 0001477  94.3194 265.7966 15.08837634112958,6917.888,95.438,540.774,538.731,0.0
51791.0,STARLINK-3602,PAYLOAD,2024-03-05 02:48:20,15.08832543,0.0002078,53.2181,46.7439,82.1944,277.9284,-1.9435e-05,-5.97e-06,0.0,0 STARLINK-3602,1 51791U 22017Z   24065.11690399 -.00000597  00000-0 -19435-4 0  9999,2 51791  53.2181  46.7439 0002078  82.1944 277.9284 15.08832543113028,6917.903,95.438,541.206,538.331,0.0
51791.0,STARLINK-3602,PAYLOAD,2024-03-05 04:23:40,15.08867692,0.0001651,53.2181,46.4459,109.15,250.967,0.0002708,4.028e-05,0.0,0 STARLINK-3602,1 51791U 22017Z   24065.18311121  .00004028  00000-0  27080-3 0  9994,2 51791  53.2181  46.4459 0001651 109.1500 250.9670 15.08867692113035,6917.796,95.436,540.803,538.519,0.0
